$$SOE
2460154.500000000, A.D. 2023-Jul-29 00:00:00.0000, 7.871410801370855E+07, 3.027679559184402E+08, 8.754199689047778E+07,
2460161.500000000, A.D. 2023-Aug-05 00:00:00.0000, 6.766536796528813E+07, 3.056224651960242E+08, 8.969603888756555E+07,
2460168.500000000, A.D. 2023-Aug-12 00:00:00.0000, 5.652152976810303E+07, 3.080472826012201E+08, 9.172395400958328E+07,
2460175.500000000, A.D. 2023-Aug-19 00:00:00.0000, 4.529878413902300E+07, 3.100418716937301E+08, 9.362374763566485E+07,
2460182.500000000, A.D. 2023-Aug-26 00:00:00.0000, 3.401319273787239E+07, 3.116061263882776E+08, 9.539357690270413E+07,
2460189.500000000, A.D. 2023-Sep-02 00:00:00.0000, 2.268068714670272E+07, 3.127403581770085E+08, 9.703174673952602E+07,
2460196.500000000, A.D. 2023-Sep-09 00:00:00.0000, 1.131706848559313E+07, 3.134452843275235E+08, 9.853670616583006E+07,
2460203.500000000, A.D. 2023-Sep-16 00:00:00.0000, -6.199225946397994E+04, 3.137220169835995E+08, 9.990704484139070E+07,
2460210.500000000, A.D. 2023-Sep-23 00:00:00.0000, -1.144095286839098E+07, 3.135720534392801E+08, 1.011414898557009E+08,
2460217.500000000, A.D. 2023-Sep-30 00:00:00.0000, -2.280439790106668E+07, 3.129972687627996E+08, 1.022389028922594E+08,
2460224.500000000, A.D. 2023-Oct-07 00:00:00.0000, -3.413703852031773E+07, 3.119999102111681E+08, 1.031982779429544E+08,
2460231.500000000, A.D. 2023-Oct-14 00:00:00.0000, -4.542371315594922E+07, 3.105825900934418E+08, 1.040187392037701E+08,
2460238.500000000, A.D. 2023-Oct-21 00:00:00.0000, -5.664938586040249E+07, 3.087482786657168E+08, 1.046995389901357E+08,
2460245.500000000, A.D. 2023-Oct-28 00:00:00.0000, -6.779914384625350E+07, 3.065002993091350E+08, 1.052400559951989E+08,
2460252.500000000, A.D. 2023-Nov-04 00:00:00.0000, -7.885819551340801E+07, 3.038423252020938E+08, 1.056397939441907E+08,
2460259.500000000, A.D. 2023-Nov-11 00:00:00.0000, -8.981186884617288E+07, 3.007783768647268E+08, 1.058983805782297E+08,
2460266.500000000, A.D. 2023-Nov-18 00:00:00.0000, -1.006456100167797E+08, 2.973128204881266E+08, 1.060155669386180E+08,
2460273.500000000, A.D. 2023-Nov-25 00:00:00.0000, -1.113449821798235E+08, 2.934503670447162E+08, 1.059912269410288E+08,
2460280.500000000, A.D. 2023-Dec-02 00:00:00.0000, -1.218956644916203E+08, 2.891960721418902E+08, 1.058253572319136E+08,
2460287.500000000, A.D. 2023-Dec-09 00:00:00.0000, -1.322834513425368E+08, 2.845553365377035E+08, 1.055180773165785E+08,
2460294.500000000, A.D. 2023-Dec-16 00:00:00.0000, -1.424942515791436E+08, 2.795339073148488E+08, 1.050696299399493E+08,
2460301.500000000, A.D. 2023-Dec-23 00:00:00.0000, -1.525140874281523E+08, 2.741378803868714E+08, 1.044803817513041E+08,
2460308.500000000, A.D. 2023-Dec-30 00:00:00.0000, -1.623290945213149E+08, 2.683737053734989E+08, 1.037508244673897E+08,
2460315.500000000, A.D. 2024-Jan-06 00:00:00.0000, -1.719255248484561E+08, 2.622481904717300E+08, 1.028815765061565E+08,
2460322.500000000, A.D. 2024-Jan-13 00:00:00.0000, -1.812897495164301E+08, 2.557685054894452E+08, 1.018733846463822E+08,
2460329.500000000, A.D. 2024-Jan-20 00:00:00.0000, -1.904082601553125E+08, 2.489421860947424E+08, 1.007271258483857E+08,
2460336.500000000, A.D. 2024-Jan-27 00:00:00.0000, -1.992676710697561E+08, 2.417771399136855E+08, 9.944380947641033E+07,
2460343.500000000, A.D. 2024-Feb-03 00:00:00.0000, -2.078547226271968E+08, 2.342816535036221E+08, 9.802457988093872E+07,
2460350.500000000, A.D. 2024-Feb-10 00:00:00.0000, -2.161562856725569E+08, 2.264643998778538E+08, 9.647071928521639E+07,
2460357.500000000, A.D. 2024-Feb-17 00:00:00.0000, -2.241593669039979E+08, 2.183344465526076E+08, 9.478365095823519E+07,
2460364.500000000, A.D. 2024-Feb-24 00:00:00.0000, -2.318511152521632E+08, 2.099012640914325E+08, 9.296494266807806E+07,
2460371.500000000, A.D. 2024-Mar-02 00:00:00.0000, -2.392188293159953E+08, 2.011747350723233E+08, 9.101631040779862E+07,
2460378.500000000, A.D. 2024-Mar-09 00:00:00.0000, -2.462499658015312E+08, 1.921651633697456E+08, 8.893962237391743E+07,
2460385.500000000, A.D. 2024-Mar-16 00:00:00.0000, -2.529321486553289E+08, 1.828832838995818E+08, 8.673690317398733E+07,
2460392.500000000, A.D. 2024-Mar-23 00:00:00.0000, -2.592531790855310E+08, 1.733402738802350E+08, 8.441033835734248E+07,
2460399.500000000, A.D. 2024-Mar-30 00:00:00.0000, -2.652010488072813E+08, 1.635477655209240E+08, 8.196227946463974E+07,
2460406.500000000, A.D. 2024-Apr-06 00:00:00.0000, -2.707639563548021E+08, 1.535178567041903E+08, 7.939524928762168E+07,
2460413.500000000, A.D. 2024-Apr-13 00:00:00.0000, -2.759303229980960E+08, 1.432631204199447E+08, 7.671194706366301E+07,
2460420.500000000, A.D. 2024-Apr-20 00:00:00.0000, -2.806888093114744E+08, 1.327966155266729E+08, 7.391525388870923E+07,
2460427.500000000, A.D. 2024-Apr-27 00:00:00.0000, -2.850283340209625E+08, 1.221318981727338E+08, 7.100823842205024E+07,
2460434.500000000, A.D. 2024-May-04 00:00:00.0000, -2.889380951496157E+08, 1.112830330625520E+08, 6.799416279361750E+07,
2460441.500000000, A.D. 2024-May-11 00:00:00.0000, -2.924075933246860E+08, 1.002646043368349E+08, 6.487648865317280E+07,
2460448.500000000, A.D. 2024-May-18 00:00:00.0000, -2.954266572666990E+08, 8.909172594203119E+07, 6.165888332020576E+07,
2460455.500000000, A.D. 2024-May-25 00:00:00.0000, -2.979854715366284E+08, 7.778005131911570E+07, 5.834522599127738E+07,
2460462.500000000, A.D. 2024-Jun-01 00:00:00.0000, -3.000746065786783E+08, 6.634578217406030E+07, 5.493961394837103E+07,
2460469.500000000, A.D. 2024-Jun-08 00:00:00.0000, -3.016850509036155E+08, 5.480567610791246E+07, 5.144636869082990E+07,
2460476.500000000, A.D. 2024-Jun-15 00:00:00.0000, -3.028082450954739E+08, 4.317705343187353E+07, 4.787004193831518E+07,
2460483.500000000, A.D. 2024-Jun-22 00:00:00.0000, -3.034361187180074E+08, 3.147780409992103E+07, 4.421542162442312E+07,
2460490.500000000, A.D. 2024-Jun-29 00:00:00.0000, -3.035611323045387E+08, 1.972639267151750E+07, 4.048753785030529E+07,
2460497.500000000, A.D. 2024-Jul-06 00:00:00.0000, -3.031763218367084E+08, 7.941858547313177E+06, 3.669166826907100E+07,
2460504.500000000, A.D. 2024-Jul-13 00:00:00.0000, -3.022753437829151E+08, -3.856186003104767E+06, 3.283334285670871E+07,
2460511.500000000, A.D. 2024-Jul-20 00:00:00.0000, -3.008525226683902E+08, -1.564755920958471E+07, 2.891834823701277E+07,
2460518.500000000, A.D. 2024-Jul-27 00:00:00.0000, -2.989029018022413E+08, -2.741151589219341E+07, 2.495273142466467E+07,
2460525.500000000, A.D. 2024-Aug-03 00:00:00.0000, -2.964222968331775E+08, -3.912675703102920E+07, 2.094280280305435E+07,
2460532.500000000, A.D. 2024-Aug-10 00:00:00.0000, -2.934073518676656E+08, -5.077144321339543E+07, 1.689513818035507E+07,
2460539.500000000, A.D. 2024-Aug-17 00:00:00.0000, -2.898555979460559E+08, -6.232321234363645E+07, 1.281657976706572E+07,
2460546.500000000, A.D. 2024-Aug-24 00:00:00.0000, -2.857655136246595E+08, -7.375920205881774E+07, 8.714235905340243E+06,
2460553.500000000, A.D. 2024-Aug-31 00:00:00.0000, -2.811365872533905E+08, -8.505607735307176E+07, 4.595479361816995E+06,
2460560.500000000, A.D. 2024-Sep-07 00:00:00.0000, -2.759693802298812E+08, -9.619006374735495E+07, 4.679439832924604E+05,
2460567.500000000, A.D. 2024-Sep-14 00:00:00.0000, -2.702655907418900E+08, -1.071369854758053E+08, -3.660480394693017E+06,
2460574.500000000, A.D. 2024-Sep-21 00:00:00.0000, -2.640281195611200E+08, -1.178723087223904E+08, -7.781654758187823E+06,
2460581.500000000, A.D. 2024-Sep-28 00:00:00.0000, -2.572611378265992E+08, -1.283711935504139E+08, -1.188719986131490E+07,
2460588.500000000, A.D. 2024-Oct-05 00:00:00.0000, -2.499701525045928E+08, -1.386085549013822E+08, -1.596850784490751E+07,
2460595.500000000, A.D. 2024-Oct-12 00:00:00.0000, -2.421620691402859E+08, -1.485591300120810E+08, -2.001675644508148E+07,
2460602.500000000, A.D. 2024-Oct-19 00:00:00.0000, -2.338452528027530E+08, -1.581975527892680E+08, -2.402292583663514E+07,
2460609.500000000, A.D. 2024-Oct-26 00:00:00.0000, -2.250295863110387E+08, -1.674984361436019E+08, -2.797781834203129E+07,
2460616.500000000, A.D. 2024-Nov-02 00:00:00.0000, -2.157265244597632E+08, -1.764364625469066E+08, -3.187208119130340E+07,
2460623.500000000, A.D. 2024-Nov-09 00:00:00.0000, -2.059491430510030E+08, -1.849864827957256E+08, -3.569623246450699E+07,
2460630.500000000, A.D. 2024-Nov-16 00:00:00.0000, -1.957121815385718E+08, -1.931236228504081E+08, -3.944069030992094E+07,
2460637.500000000, A.D. 2024-Nov-23 00:00:00.0000, -1.850320780096376E+08, -2.008233985207943E+08, -4.309580549624379E+07,
2460644.500000000, A.D. 2024-Nov-30 00:00:00.0000, -1.739269950276738E+08, -2.080618375991796E+08, -4.665189732332678E+07,
2460651.500000000, A.D. 2024-Dec-07 00:00:00.0000, -1.624168346341411E+08, -2.148156083990563E+08, -5.009929284226252E+07,
2460658.500000000, A.D. 2024-Dec-14 00:00:00.0000, -1.505232419250191E+08, -2.210621526616449E+08, -5.342836910552828E+07,
2460665.500000000, A.D. 2024-Dec-21 00:00:00.0000, -1.382695982880695E+08, -2.267798230555134E+08, -5.662959815043247E+07,
2460672.500000000, A.D. 2024-Dec-28 00:00:00.0000, -1.256810011732474E+08, -2.319480270214779E+08, -5.969359488136236E+07,
2460679.500000000, A.D. 2025-Jan-04 00:00:00.0000, -1.127842267640238E+08, -2.365473731733855E+08, -6.261116756171492E+07,
2460686.500000000, A.D. 2025-Jan-11 00:00:00.0000, -9.960767649241687E+07, -2.405598169852619E+08, -6.537337020019931E+07,
2460693.500000000, A.D. 2025-Jan-18 00:00:00.0000, -8.618130763137564E+07, -2.439688048932663E+08, -6.797155633006819E+07,
2460700.500000000, A.D. 2025-Jan-25 00:00:00.0000, -7.253654727356662E+07, -2.467594153406319E+08, -7.039743367268373E+07,
2460707.500000000, A.D. 2025-Feb-01 00:00:00.0000, -5.870618932993691E+07, -2.489184947264938E+08, -7.264311906408396E+07,
2460714.500000000, A.D. 2025-Feb-08 00:00:00.0000, -4.472427461517532E+07, -2.504347860931375E+08, -7.470119294853209E+07,
2460721.500000000, A.D. 2025-Feb-15 00:00:00.0000, -3.062595445213522E+07, -2.512990483992131E+08, -7.656475269996151E+07,
$$EOE